ONEWEB-0521             
1 54139U 22138AC  26019.86537372 -.00000005  00000+0 -44269-4 0  9992
2 54139  87.9247 334.4603 0002013  79.2957 280.8402 13.19726374157201
ONEWEB-0522             
1 54140U 22138AD  26020.29973375  .00000038  00000+0  62233-4 0  9995
2 54140  87.9245 334.3752 0001677  74.3488 285.7830 13.19726946157300
ONEWEB-0523             
1 54141U 22138AE  26020.22899012  .00000074  00000+0  14956-3 0  9992
2 54141  87.9230 303.9582 0002223  93.8688 266.2699 13.20769593159771
ONEWEB-0524             
1 54142U 22138AF  26020.21793609  .00000093  00000+0  19681-3 0  9998
2 54142  87.9231 303.9622 0001454 110.6654 249.4635 13.20772236159775
ONEWEB-0525             
1 54143U 22138AG  26020.24287724 -.00000026  00000+0 -97297-4 0  9996
2 54143  87.9237 334.4041 0001550  72.2211 287.9091 13.19725694157310
ONEWEB-0526             
1 54144U 22138AH  26020.27604722  .00000087  00000+0  18394-3 0  9996
2 54144  87.9246 334.3890 0001668  78.8799 281.2521 13.19726514157299
ONEWEB-0529             
1 54145U 22138AJ  26020.27920661  .00000081  00000+0  17041-3 0  9992
2 54145  87.9235 334.4114 0001533  74.4920 285.6382 13.19726194157317
ONEWEB-0531             
1 54146U 22138AK  26020.27948766  .00000116  00000+0  25389-3 0  9992
2 54146  87.9234 303.9452 0002075 102.8464 257.2901 13.20773318159781
ONEWEB-0535             
1 54147U 22138AL  26019.85747124 -.00000042  00000+0 -13607-3 0  9990
2 54147  87.9245 334.4667 0002060  85.7642 274.3726 13.19726697157275
ONEWEB-0536             
1 54148U 22138AM  26020.26685372  .00000144  00000+0  32214-3 0  9990
2 54148  87.9223 303.9872 0002005 107.5915 252.5438 13.20774003159777
ONEWEB-0527             
1 54642U 22166A   26020.18423962 -.00000173  00000+0 -44994-3 0  9998
2 54642  87.9214 273.5238 0001487  78.8084 281.3218 13.21825693151988
ONEWEB-0528             
1 54643U 22166B   26020.19082844  .00000153  00000+0  33951-3 0  9997
2 54643  87.9215 273.5263 0001441  75.8965 284.2329 13.21828371151995
ONEWEB-0539             
1 54644U 22166C   26020.15299365  .00001013  00000+0  24213-2 0  9998
2 54644  87.9213 273.4991 0001551  67.4041 292.7257 13.21820659151989
ONEWEB-0540             
1 54645U 22166D   26020.23539137 -.00000226  00000+0 -57876-3 0  9991
2 54645  87.9211 273.5201 0001667  75.3945 284.7374 13.21826529151985
ONEWEB-0542             
1 54646U 22166E   26020.16286923 -.00000021  00000+0 -82311-4 0  9992
2 54646  87.9212 273.4918 0001842  69.2842 290.8490 13.21825435151986
ONEWEB-0545             
1 54647U 22166F   26020.12831057  .00000139  00000+0  30556-3 0  9994
2 54647  87.9212 273.5211 0002034  70.5635 289.5719 13.21826252151946
