[{"OBJECT_NAME":"ONEWEB-0521","OBJECT_ID":"2022-138AC","EPOCH":"2026-01-19T20:46:08.289408","MEAN_MOTION":13.19726374,"ECCENTRICITY":0.00020131,"INCLINATION":87.9247,"RA_OF_ASC_NODE":334.4603,"ARG_OF_PERICENTER":79.2957,"MEAN_ANOMALY":280.8402,"EPHEMERIS_TYPE":0,"CLASSIFICATION_TYPE":"U","NORAD_CAT_ID":54139,"ELEMENT_SET_NO":999,"REV_AT_EPOCH":15720,"BSTAR":-4.4269082e-5,"MEAN_MOTION_DOT":-5.0e-8,"MEAN_MOTION_DDOT":0},{"OBJECT_NAME":"ONEWEB-0522","OBJECT_ID":"2022-138AD","EPOCH":"2026-01-20T07:11:36.996000","MEAN_MOTION":13.19726946,"ECCENTRICITY":0.00016777,"INCLINATION":87.9245,"RA_OF_ASC_NODE":334.3752,"ARG_OF_PERICENTER":74.3488,"MEAN_ANOMALY":285.783,"EPHEMERIS_TYPE":0,"CLASSIFICATION_TYPE":"U","NORAD_CAT_ID":54140,"ELEMENT_SET_NO":999,"REV_AT_EPOCH":15730,"BSTAR":6.2233031e-5,"MEAN_MOTION_DOT":3.8e-7,"MEAN_MOTION_DDOT":0},{"OBJECT_NAME":"ONEWEB-0523","OBJECT_ID":"2022-138AE","EPOCH":"2026-01-20T05:29:44.746368","MEAN_MOTION":13.20769593,"ECCENTRICITY":0.0002223,"INCLINATION":87.923,"RA_OF_ASC_NODE":303.9582,"ARG_OF_PERICENTER":93.8688,"MEAN_ANOMALY":266.2699,"EPHEMERIS_TYPE":0,"CLASSIFICATION_TYPE":"U","NORAD_CAT_ID":54141,"ELEMENT_SET_NO":999,"REV_AT_EPOCH":15977,"BSTAR":0.00014956496,"MEAN_MOTION_DOT":7.4e-7,"MEAN_MOTION_DDOT":0},{"OBJECT_NAME":"ONEWEB-0524","OBJECT_ID":"2022-138AF","EPOCH":"2026-01-20T05:13:49.678176","MEAN_MOTION":13.20772236,"ECCENTRICITY":0.00014549,"INCLINATION":87.9231,"RA_OF_ASC_NODE":303.9622,"ARG_OF_PERICENTER":110.6654,"MEAN_ANOMALY":249.4635,"EPHEMERIS_TYPE":0,"CLASSIFICATION_TYPE":"U","NORAD_CAT_ID":54142,"ELEMENT_SET_NO":999,"REV_AT_EPOCH":15977,"BSTAR":0.0001968059,"MEAN_MOTION_DOT":9.3e-7,"MEAN_MOTION_DDOT":0},{"OBJECT_NAME":"ONEWEB-0525","OBJECT_ID":"2022-138AG","EPOCH":"2026-01-20T05:49:44.593536","MEAN_MOTION":13.19725694,"ECCENTRICITY":0.00015504,"INCLINATION":87.9237,"RA_OF_ASC_NODE":334.4041,"ARG_OF_PERICENTER":72.2211,"MEAN_ANOMALY":287.9091,"EPHEMERIS_TYPE":0,"CLASSIFICATION_TYPE":"U","NORAD_CAT_ID":54143,"ELEMENT_SET_NO":999,"REV_AT_EPOCH":15731,"BSTAR":-9.7296959e-5,"MEAN_MOTION_DOT":-2.6e-7,"MEAN_MOTION_DDOT":0},{"OBJECT_NAME":"ONEWEB-0526","OBJECT_ID":"2022-138AH","EPOCH":"2026-01-20T06:37:30.479808","MEAN_MOTION":13.19726514,"ECCENTRICITY":0.00016687,"INCLINATION":87.9246,"RA_OF_ASC_NODE":334.389,"ARG_OF_PERICENTER":78.8799,"MEAN_ANOMALY":281.2521,"EPHEMERIS_TYPE":0,"CLASSIFICATION_TYPE":"U","NORAD_CAT_ID":54144,"ELEMENT_SET_NO":999,"REV_AT_EPOCH":15729,"BSTAR":0.00018393945,"MEAN_MOTION_DOT":8.7e-7,"MEAN_MOTION_DDOT":0},{"OBJECT_NAME":"ONEWEB-0529","OBJECT_ID":"2022-138AJ","EPOCH":"2026-01-20T06:42:03.451104","MEAN_MOTION":13.19726194,"ECCENTRICITY":0.00015333,"INCLINATION":87.9235,"RA_OF_ASC_NODE":334.4114,"ARG_OF_PERICENTER":74.492,"MEAN_ANOMALY":285.6382,"EPHEMERIS_TYPE":0,"CLASSIFICATION_TYPE":"U","NORAD_CAT_ID":54145,"ELEMENT_SET_NO":999,"REV_AT_EPOCH":15731,"BSTAR":0.000170413,"MEAN_MOTION_DOT":8.1e-7,"MEAN_MOTION_DDOT":0},{"OBJECT_NAME":"ONEWEB-0531","OBJECT_ID":"2022-138AK","EPOCH":"2026-01-20T06:42:27.733824","MEAN_MOTION":13.20773318,"ECCENTRICITY":0.00020755,"INCLINATION":87.9234,"RA_OF_ASC_NODE":303.9452,"ARG_OF_PERICENTER":102.8464,"MEAN_ANOMALY":257.2901,"EPHEMERIS_TYPE":0,"CLASSIFICATION_TYPE":"U","NORAD_CAT_ID":54146,"ELEMENT_SET_NO":999,"REV_AT_EPOCH":15978,"BSTAR":0.00025389401,"MEAN_MOTION_DOT":1.16e-6,"MEAN_MOTION_DDOT":0},{"OBJECT_NAME":"ONEWEB-0535","OBJECT_ID":"2022-138AL","EPOCH":"2026-01-19T20:34:45.515136","MEAN_MOTION":13.19726697,"ECCENTRICITY":0.00020609,"INCLINATION":87.9245,"RA_OF_ASC_NODE":334.4667,"ARG_OF_PERICENTER":85.7642,"MEAN_ANOMALY":274.3726,"EPHEMERIS_TYPE":0,"CLASSIFICATION_TYPE":"U","NORAD_CAT_ID":54147,"ELEMENT_SET_NO":999,"REV_AT_EPOCH":15727,"BSTAR":-0.00013606723,"MEAN_MOTION_DOT":-4.2e-7,"MEAN_MOTION_DDOT":0},{"OBJECT_NAME":"ONEWEB-0536","OBJECT_ID":"2022-138AM","EPOCH":"2026-01-20T06:24:16.161408","MEAN_MOTION":13.20774003,"ECCENTRICITY":0.00020057,"INCLINATION":87.9223,"RA_OF_ASC_NODE":303.9872,"ARG_OF_PERICENTER":107.5915,"MEAN_ANOMALY":252.5438,"EPHEMERIS_TYPE":0,"CLASSIFICATION_TYPE":"U","NORAD_CAT_ID":54148,"ELEMENT_SET_NO":999,"REV_AT_EPOCH":15977,"BSTAR":0.0003221381,"MEAN_MOTION_DOT":1.44e-6,"MEAN_MOTION_DDOT":0},{"OBJECT_NAME":"ONEWEB-0527","OBJECT_ID":"2022-166A","EPOCH":"2026-01-20T04:25:18.303168","MEAN_MOTION":13.21825693,"ECCENTRICITY":0.00014871,"INCLINATION":87.9214,"RA_OF_ASC_NODE":273.5238,"ARG_OF_PERICENTER":78.8084,"MEAN_ANOMALY":281.3218,"EPHEMERIS_TYPE":0,"CLASSIFICATION_TYPE":"U","NORAD_CAT_ID":54642,"ELEMENT_SET_NO":999,"REV_AT_EPOCH":15198,"BSTAR":-0.00044994062,"MEAN_MOTION_DOT":-1.73e-6,"MEAN_MOTION_DDOT":0},{"OBJECT_NAME":"ONEWEB-0528","OBJECT_ID":"2022-166B","EPOCH":"2026-01-20T04:34:47.577216","MEAN_MOTION":13.21828371,"ECCENTRICITY":0.00014414,"INCLINATION":87.9215,"RA_OF_ASC_NODE":273.5263,"ARG_OF_PERICENTER":75.8965,"MEAN_ANOMALY":284.2329,"EPHEMERIS_TYPE":0,"CLASSIFICATION_TYPE":"U","NORAD_CAT_ID":54643,"ELEMENT_SET_NO":999,"REV_AT_EPOCH":15199,"BSTAR":0.00033950903,"MEAN_MOTION_DOT":1.53e-6,"MEAN_MOTION_DDOT":0},{"OBJECT_NAME":"ONEWEB-0539","OBJECT_ID":"2022-166C","EPOCH":"2026-01-20T03:40:18.651360","MEAN_MOTION":13.21820659,"ECCENTRICITY":0.00015511,"INCLINATION":87.9213,"RA_OF_ASC_NODE":273.4991,"ARG_OF_PERICENTER":67.4041,"MEAN_ANOMALY":292.7257,"EPHEMERIS_TYPE":0,"CLASSIFICATION_TYPE":"U","NORAD_CAT_ID":54644,"ELEMENT_SET_NO":999,"REV_AT_EPOCH":15198,"BSTAR":0.0024213317,"MEAN_MOTION_DOT":1.013e-5,"MEAN_MOTION_DDOT":0},{"OBJECT_NAME":"ONEWEB-0540","OBJECT_ID":"2022-166D","EPOCH":"2026-01-20T05:38:57.814368","MEAN_MOTION":13.21826529,"ECCENTRICITY":0.00016678,"INCLINATION":87.9211,"RA_OF_ASC_NODE":273.5201,"ARG_OF_PERICENTER":75.3945,"MEAN_ANOMALY":284.7374,"EPHEMERIS_TYPE":0,"CLASSIFICATION_TYPE":"U","NORAD_CAT_ID":54645,"ELEMENT_SET_NO":999,"REV_AT_EPOCH":15198,"BSTAR":-0.00057875607,"MEAN_MOTION_DOT":-2.26e-6,"MEAN_MOTION_DDOT":0},{"OBJECT_NAME":"ONEWEB-0542","OBJECT_ID":"2022-166E","EPOCH":"2026-01-20T03:54:31.901472","MEAN_MOTION":13.21825435,"ECCENTRICITY":0.00018429,"INCLINATION":87.9212,"RA_OF_ASC_NODE":273.4918,"ARG_OF_PERICENTER":69.2842,"MEAN_ANOMALY":290.849,"EPHEMERIS_TYPE":0,"CLASSIFICATION_TYPE":"U","NORAD_CAT_ID":54646,"ELEMENT_SET_NO":999,"REV_AT_EPOCH":15198,"BSTAR":-8.231072e-5,"MEAN_MOTION_DOT":-2.1e-7,"MEAN_MOTION_DDOT":0},{"OBJECT_NAME":"ONEWEB-0545","OBJECT_ID":"2022-166F","EPOCH":"2026-01-20T03:04:46.033248","MEAN_MOTION":13.21826252,"ECCENTRICITY":0.0002034,"INCLINATION":87.9212,"RA_OF_ASC_NODE":273.5211,"ARG_OF_PERICENTER":70.5635,"MEAN_ANOMALY":289.5719,"EPHEMERIS_TYPE":0,"CLASSIFICATION_TYPE":"U","NORAD_CAT_ID":54647,"ELEMENT_SET_NO":999,"REV_AT_EPOCH":15194,"BSTAR":0.00030556002,"MEAN_MOTION_DOT":1.39e-6,"MEAN_MOTION_DDOT":0}]
